ORBCOMM-X               
1 21576U 91050C   24354.17938641  .00000714  00000+0  22624-3 0  9993
2 21576  98.3689  58.2649 0003977  27.9515 332.1888 14.42981372756153
ORBCOMM FM01            
1 23545U 95017A   24354.21774841  .00009805  00000+0  11271-2 0  9998
2 23545  69.9637 161.6731 0006770 252.8519 107.1892 14.86017942585736
ORBCOMM FM02            
1 23546U 95017B   24354.01703180  .00012475  00000+0  14311-2 0  9990
2 23546  69.9648 181.8677 0008552 245.5713 114.4547 14.86002805585344
ORBCOMM FM10            
1 25113U 97084B   24354.14281905  .00003674  00000+0  10963-2 0  9998
2 25113  45.0134 153.5312 0003059  30.7410 329.3619 14.44420363590472
ORBCOMM FM11            
1 25114U 97084C   24354.18680598  .00003400  00000+0  10225-2 0  9992
2 25114  45.0120 153.6433 0003926  32.1849 327.9241 14.44197469415444
ORBCOMM FM12            
1 25115U 97084D   24354.15107782  .00003121  00000+0  94213-3 0  9999
2 25115  45.0130 153.5741 0002940  32.1236 327.9794 14.44200920415239
ORBCOMM FM09            
1 25116U 97084E   24354.16988959  .00003283  00000+0  99022-3 0  9996
2 25116  45.0131 154.2600 0004166  10.2357 349.8578 14.44119637415446
