<?xml version="1.0" encoding="UTF-8"?>
<ndm xmlns:xsi="http://www.w3.org/2001/XMLSchema-instance" xsi:noNamespaceSchemaLocation="https://sanaregistry.org/r/ndmxml_unqualified/ndmxml-2.0.0-master-2.0.xsd">
<omm id="CCSDS_OMM_VERS" version="2.0">
<header><CREATION_DATE/><ORIGINATOR/></header><body><segment><metadata><OBJECT_NAME>ORBCOMM-X</OBJECT_NAME><OBJECT_ID>1991-050C</OBJECT_ID><CENTER_NAME>EARTH</CENTER_NAME><REF_FRAME>TEME</REF_FRAME><TIME_SYSTEM>UTC</TIME_SYSTEM><MEAN_ELEMENT_THEORY>SGP4</MEAN_ELEMENT_THEORY></metadata><data><meanElements><EPOCH>2024-12-19T04:18:18.985824</EPOCH><MEAN_MOTION>14.42981372</MEAN_MOTION><ECCENTRICITY>.0003977</ECCENTRICITY><INCLINATION>98.3689</INCLINATION><RA_OF_ASC_NODE>58.2649</RA_OF_ASC_NODE><ARG_OF_PERICENTER>27.9515</ARG_OF_PERICENTER><MEAN_ANOMALY>332.1888</MEAN_ANOMALY></meanElements><tleParameters><EPHEMERIS_TYPE>0</EPHEMERIS_TYPE><CLASSIFICATION_TYPE>U</CLASSIFICATION_TYPE><NORAD_CAT_ID>21576</NORAD_CAT_ID><ELEMENT_SET_NO>999</ELEMENT_SET_NO><REV_AT_EPOCH>75615</REV_AT_EPOCH><BSTAR>.22624E-3</BSTAR><MEAN_MOTION_DOT>.714E-5</MEAN_MOTION_DOT><MEAN_MOTION_DDOT>0</MEAN_MOTION_DDOT></tleParameters></data></segment></body></omm>
<omm id="CCSDS_OMM_VERS" version="2.0">
<header><CREATION_DATE/><ORIGINATOR/></header><body><segment><metadata><OBJECT_NAME>ORBCOMM FM01</OBJECT_NAME><OBJECT_ID>1995-017A</OBJECT_ID><CENTER_NAME>EARTH</CENTER_NAME><REF_FRAME>TEME</REF_FRAME><TIME_SYSTEM>UTC</TIME_SYSTEM><MEAN_ELEMENT_THEORY>SGP4</MEAN_ELEMENT_THEORY></metadata><data><meanElements><EPOCH>2024-12-19T05:13:33.462624</EPOCH><MEAN_MOTION>14.86017942</MEAN_MOTION><ECCENTRICITY>.000677</ECCENTRICITY><INCLINATION>69.9637</INCLINATION><RA_OF_ASC_NODE>161.6731</RA_OF_ASC_NODE><ARG_OF_PERICENTER>252.8519</ARG_OF_PERICENTER><MEAN_ANOMALY>107.1892</MEAN_ANOMALY></meanElements><tleParameters><EPHEMERIS_TYPE>0</EPHEMERIS_TYPE><CLASSIFICATION_TYPE>U</CLASSIFICATION_TYPE><NORAD_CAT_ID>23545</NORAD_CAT_ID><ELEMENT_SET_NO>999</ELEMENT_SET_NO><REV_AT_EPOCH>58573</REV_AT_EPOCH><BSTAR>.11271E-2</BSTAR><MEAN_MOTION_DOT>.9805E-4</MEAN_MOTION_DOT><MEAN_MOTION_DDOT>0</MEAN_MOTION_DDOT></tleParameters></data></segment></body></omm>
<omm id="CCSDS_OMM_VERS" version="2.0">
<header><CREATION_DATE/><ORIGINATOR/></header><body><segment><metadata><OBJECT_NAME>ORBCOMM FM02</OBJECT_NAME><OBJECT_ID>1995-017B</OBJECT_ID><CENTER_NAME>EARTH</CENTER_NAME><REF_FRAME>TEME</REF_FRAME><TIME_SYSTEM>UTC</TIME_SYSTEM><MEAN_ELEMENT_THEORY>SGP4</MEAN_ELEMENT_THEORY></metadata><data><meanElements><EPOCH>2024-12-19T00:24:31.547520</EPOCH><MEAN_MOTION>14.86002805</MEAN_MOTION><ECCENTRICITY>.0008552</ECCENTRICITY><INCLINATION>69.9648</INCLINATION><RA_OF_ASC_NODE>181.8677</RA_OF_ASC_NODE><ARG_OF_PERICENTER>245.5713</ARG_OF_PERICENTER><MEAN_ANOMALY>114.4547</MEAN_ANOMALY></meanElements><tleParameters><EPHEMERIS_TYPE>0</EPHEMERIS_TYPE><CLASSIFICATION_TYPE>U</CLASSIFICATION_TYPE><NORAD_CAT_ID>23546</NORAD_CAT_ID><ELEMENT_SET_NO>999</ELEMENT_SET_NO><REV_AT_EPOCH>58534</REV_AT_EPOCH><BSTAR>.14311E-2</BSTAR><MEAN_MOTION_DOT>.12475E-3</MEAN_MOTION_DOT><MEAN_MOTION_DDOT>0</MEAN_MOTION_DDOT></tleParameters></data></segment></body></omm>
<omm id="CCSDS_OMM_VERS" version="2.0">
<header><CREATION_DATE/><ORIGINATOR/></header><body><segment><metadata><OBJECT_NAME>ORBCOMM FM10</OBJECT_NAME><OBJECT_ID>1997-084B</OBJECT_ID><CENTER_NAME>EARTH</CENTER_NAME><REF_FRAME>TEME</REF_FRAME><TIME_SYSTEM>UTC</TIME_SYSTEM><MEAN_ELEMENT_THEORY>SGP4</MEAN_ELEMENT_THEORY></metadata><data><meanElements><EPOCH>2024-12-19T03:25:39.565920</EPOCH><MEAN_MOTION>14.44420363</MEAN_MOTION><ECCENTRICITY>.0003059</ECCENTRICITY><INCLINATION>45.0134</INCLINATION><RA_OF_ASC_NODE>153.5312</RA_OF_ASC_NODE><ARG_OF_PERICENTER>30.7410</ARG_OF_PERICENTER><MEAN_ANOMALY>329.3619</MEAN_ANOMALY></meanElements><tleParameters><EPHEMERIS_TYPE>0</EPHEMERIS_TYPE><CLASSIFICATION_TYPE>U</CLASSIFICATION_TYPE><NORAD_CAT_ID>25113</NORAD_CAT_ID><ELEMENT_SET_NO>999</ELEMENT_SET_NO><REV_AT_EPOCH>59047</REV_AT_EPOCH><BSTAR>.10963E-2</BSTAR><MEAN_MOTION_DOT>.3674E-4</MEAN_MOTION_DOT><MEAN_MOTION_DDOT>0</MEAN_MOTION_DDOT></tleParameters></data></segment></body></omm>
<omm id="CCSDS_OMM_VERS" version="2.0">
<header><CREATION_DATE/><ORIGINATOR/></header><body><segment><metadata><OBJECT_NAME>ORBCOMM FM11</OBJECT_NAME><OBJECT_ID>1997-084C</OBJECT_ID><CENTER_NAME>EARTH</CENTER_NAME><REF_FRAME>TEME</REF_FRAME><TIME_SYSTEM>UTC</TIME_SYSTEM><MEAN_ELEMENT_THEORY>SGP4</MEAN_ELEMENT_THEORY></metadata><data><meanElements><EPOCH>2024-12-19T04:29:00.036672</EPOCH><MEAN_MOTION>14.44197469</MEAN_MOTION><ECCENTRICITY>.0003926</ECCENTRICITY><INCLINATION>45.0120</INCLINATION><RA_OF_ASC_NODE>153.6433</RA_OF_ASC_NODE><ARG_OF_PERICENTER>32.1849</ARG_OF_PERICENTER><MEAN_ANOMALY>327.9241</MEAN_ANOMALY></meanElements><tleParameters><EPHEMERIS_TYPE>0</EPHEMERIS_TYPE><CLASSIFICATION_TYPE>U</CLASSIFICATION_TYPE><NORAD_CAT_ID>25114</NORAD_CAT_ID><ELEMENT_SET_NO>999</ELEMENT_SET_NO><REV_AT_EPOCH>41544</REV_AT_EPOCH><BSTAR>.10225E-2</BSTAR><MEAN_MOTION_DOT>.34E-4</MEAN_MOTION_DOT><MEAN_MOTION_DDOT>0</MEAN_MOTION_DDOT></tleParameters></data></segment></body></omm>
<omm id="CCSDS_OMM_VERS" version="2.0">
<header><CREATION_DATE/><ORIGINATOR/></header><body><segment><metadata><OBJECT_NAME>ORBCOMM FM12</OBJECT_NAME><OBJECT_ID>1997-084D</OBJECT_ID><CENTER_NAME>EARTH</CENTER_NAME><REF_FRAME>TEME</REF_FRAME><TIME_SYSTEM>UTC</TIME_SYSTEM><MEAN_ELEMENT_THEORY>SGP4</MEAN_ELEMENT_THEORY></metadata><data><meanElements><EPOCH>2024-12-19T03:37:33.123648</EPOCH><MEAN_MOTION>14.44200920</MEAN_MOTION><ECCENTRICITY>.000294</ECCENTRICITY><INCLINATION>45.0130</INCLINATION><RA_OF_ASC_NODE>153.5741</RA_OF_ASC_NODE><ARG_OF_PERICENTER>32.1236</ARG_OF_PERICENTER><MEAN_ANOMALY>327.9794</MEAN_ANOMALY></meanElements><tleParameters><EPHEMERIS_TYPE>0</EPHEMERIS_TYPE><CLASSIFICATION_TYPE>U</CLASSIFICATION_TYPE><NORAD_CAT_ID>25115</NORAD_CAT_ID><ELEMENT_SET_NO>999</ELEMENT_SET_NO><REV_AT_EPOCH>41523</REV_AT_EPOCH><BSTAR>.94213E-3</BSTAR><MEAN_MOTION_DOT>.3121E-4</MEAN_MOTION_DOT><MEAN_MOTION_DDOT>0</MEAN_MOTION_DDOT></tleParameters></data></segment></body></omm>
<omm id="CCSDS_OMM_VERS" version="2.0">
<header><CREATION_DATE/><ORIGINATOR/></header><body><segment><metadata><OBJECT_NAME>ORBCOMM FM09</OBJECT_NAME><OBJECT_ID>1997-084E</OBJECT_ID><CENTER_NAME>EARTH</CENTER_NAME><REF_FRAME>TEME</REF_FRAME><TIME_SYSTEM>UTC</TIME_SYSTEM><MEAN_ELEMENT_THEORY>SGP4</MEAN_ELEMENT_THEORY></metadata><data><meanElements><EPOCH>2024-12-19T04:04:38.460576</EPOCH><MEAN_MOTION>14.44119637</MEAN_MOTION><ECCENTRICITY>.0004166</ECCENTRICITY><INCLINATION>45.0131</INCLINATION><RA_OF_ASC_NODE>154.2600</RA_OF_ASC_NODE><ARG_OF_PERICENTER>10.2357</ARG_OF_PERICENTER><MEAN_ANOMALY>349.8578</MEAN_ANOMALY></meanElements><tleParameters><EPHEMERIS_TYPE>0</EPHEMERIS_TYPE><CLASSIFICATION_TYPE>U</CLASSIFICATION_TYPE><NORAD_CAT_ID>25116</NORAD_CAT_ID><ELEMENT_SET_NO>999</ELEMENT_SET_NO><REV_AT_EPOCH>41544</REV_AT_EPOCH><BSTAR>.99022E-3</BSTAR><MEAN_MOTION_DOT>.3283E-4</MEAN_MOTION_DOT><MEAN_MOTION_DDOT>0</MEAN_MOTION_DDOT></tleParameters></data></segment></body></omm>

</ndm>
